[{"OBJECT_NAME":"NUSAT-44 (MARIA MITCHELL)","OBJECT_ID":"2024-043AA","EPOCH":"2026-03-09T22:12:18.524160","MEAN_MOTION":15.29764305,"ECCENTRICITY":0.0007331,"INCLINATION":97.5299,"RA_OF_ASC_NODE":207.7691,"ARG_OF_PERICENTER":214.9017,"MEAN_ANOMALY":145.1743,"EPHEMERIS_TYPE":0,"CLASSIFICATION_TYPE":"U","NORAD_CAT_ID":59122,"ELEMENT_SET_NO":999,"REV_AT_EPOCH":11209,"BSTAR":0.00061063193,"MEAN_MOTION_DOT":0.00017562,"MEAN_MOTION_DDOT":0},{"OBJECT_NAME":"STARLINK-35478","OBJECT_ID":"2025-225H","EPOCH":"2026-03-09T12:55:50.648160","MEAN_MOTION":15.3018961,"ECCENTRICITY":0.0001108,"INCLINATION":53.1592,"RA_OF_ASC_NODE":166.4758,"ARG_OF_PERICENTER":90.53,"MEAN_ANOMALY":269.5828,"EPHEMERIS_TYPE":0,"CLASSIFICATION_TYPE":"U","NORAD_CAT_ID":65917,"ELEMENT_SET_NO":999,"REV_AT_EPOCH":2438,"BSTAR":0.00051504225,"MEAN_MOTION_DOT":0.00014921,"MEAN_MOTION_DDOT":0}]
